[{"OBJECT_NAME":"STARLINK-34749","OBJECT_ID":"2025-211Z","EPOCH":"2026-03-09T16:00:18.794016","MEAN_MOTION":15.05648009,"ECCENTRICITY":9.926e-5,"INCLINATION":97.6041,"RA_OF_ASC_NODE":114.1235,"ARG_OF_PERICENTER":160.2549,"MEAN_ANOMALY":199.8716,"EPHEMERIS_TYPE":0,"CLASSIFICATION_TYPE":"U","NORAD_CAT_ID":65675,"ELEMENT_SET_NO":999,"REV_AT_EPOCH":2704,"BSTAR":9.1968073e-5,"MEAN_MOTION_DOT":1.266e-5,"MEAN_MOTION_DDOT":0},{"OBJECT_NAME":"OBJECT H","OBJECT_ID":"2025-292H","EPOCH":"2026-03-09T22:24:53.558208","MEAN_MOTION":15.06373042,"ECCENTRICITY":0.00142604,"INCLINATION":97.6442,"RA_OF_ASC_NODE":145.7846,"ARG_OF_PERICENTER":348.9217,"MEAN_ANOMALY":11.1694,"EPHEMERIS_TYPE":0,"CLASSIFICATION_TYPE":"U","NORAD_CAT_ID":67000,"ELEMENT_SET_NO":999,"REV_AT_EPOCH":1338,"BSTAR":0.0005462937,"MEAN_MOTION_DOT":8.001e-5,"MEAN_MOTION_DDOT":0}]
